CELESTIS-02 & TAURUS R/B
1 25160U 98007D   26095.18341704  .00000093  00000+0  97758-4 0  9999
2 25160 108.0036 184.9383 0063775 257.9691 158.8129 14.22462220460130
