[{"OBJECT_NAME":"CELESTIS-02 & TAURUS R/B","OBJECT_ID":"1998-007D","EPOCH":"2026-04-05T04:24:07.232256","MEAN_MOTION":14.2246222,"ECCENTRICITY":0.00637757,"INCLINATION":108.0036,"RA_OF_ASC_NODE":184.9383,"ARG_OF_PERICENTER":257.9691,"MEAN_ANOMALY":158.8129,"EPHEMERIS_TYPE":0,"CLASSIFICATION_TYPE":"U","NORAD_CAT_ID":25160,"ELEMENT_SET_NO":999,"REV_AT_EPOCH":46013,"BSTAR":9.7758389e-5,"MEAN_MOTION_DOT":9.3e-7,"MEAN_MOTION_DDOT":0}]
